NORAD_CAT_ID,OBJECT_NAME,OBJECT_TYPE,EPOCH,MEAN_MOTION,ECCENTRICITY,INCLINATION,RA_OF_ASC_NODE,ARG_OF_PERICENTER,MEAN_ANOMALY,BSTAR,MEAN_MOTION_DOT,MEAN_MOTION_DDOT,TLE_LINE0,TLE_LINE1,TLE_LINE2,SEMIMAJOR_AXIS,PERIOD,APOGEE,PERIGEE,DECAYED
53926.0,STARLINK-5014,PAYLOAD,2023-01-08 12:10:15,15.08834043,0.0002121,53.2169,99.2171,47.8765,312.2407,2.3856e-05,9.1e-07,0.0,0 STARLINK-5014,1 53926U 22119AS  23008.50711952  .00000091  00000-0  23856-4 0  9991,2 53926  53.2169  99.2171 0002121  47.8765 312.2407 15.08834043 16939,6917.899,95.438,541.231,538.2959999999998,0.0
53926.0,STARLINK-5014,PAYLOAD,2023-01-09 12:01:01,15.088486499999998,0.0001834,53.2173,94.7554,43.5644,316.5493,8.4165e-05,1.052e-05,0.0,0 STARLINK-5014,1 53926U 22119AS  23009.50070657  .00001052  00000-0  84165-4 0  9990,2 53926  53.2173  94.7554 0001834  43.5644 316.5493 15.08848650 17514,6917.854,95.437,540.988,538.45,0.0
53926.0,STARLINK-5014,PAYLOAD,2023-01-09 15:11:47,15.0884571,0.0001901,53.2179,94.1612,46.9093,313.2058,7.7103e-05,9.39e-06,0.0,0 STARLINK-5014,1 53926U 22119AS  23009.63318868  .00000939  00000-0  77103-4 0  9990,2 53926  53.2179  94.1612 0001901  46.9093 313.2058 15.08845710 17536,6917.863,95.437,541.043,538.413,0.0
53926.0,STARLINK-5014,PAYLOAD,2023-01-10 11:51:49,15.08831741,0.0001981,53.2191,90.2973,43.4856,316.6292,5.7784e-05,6.31e-06,0.0,0 STARLINK-5014,1 53926U 22119AS  23010.49432082  .00000631  00000-0  57784-4 0  9993,2 53926  53.2191  90.2973 0001981  43.4856 316.6292 15.08831741 17237,6917.906,95.438,541.141,538.4,0.0
53926.0,STARLINK-5014,PAYLOAD,2023-01-10 15:02:35,15.08838191,0.0001961,53.2177,89.7006,44.3542,315.7607,2.8594e-06,-2.43e-06,0.0,0 STARLINK-5014,1 53926U 22119AS  23010.62679854 -.00000243  00000-0  28594-5 0  9996,2 53926  53.2177  89.7006 0001961  44.3542 315.7607 15.08838191 17686,6917.886,95.438,541.1080000000002,538.394,0.0
53926.0,STARLINK-5014,PAYLOAD,2023-01-11 11:42:34,15.08856935,0.0001913,53.2173,85.8353,38.3328,321.7799,9.6703e-05,1.252e-05,0.0,0 STARLINK-5014,1 53926U 22119AS  23011.48789974  .00001252  00000-0  96703-4 0  9992,2 53926  53.2173  85.8353 0001913  38.3328 321.7799 15.08856935 17388,6917.8290000000015,95.436,541.0169999999998,538.37,0.0
53926.0,STARLINK-5014,PAYLOAD,2023-01-11 21:14:54,15.08836374,0.0001979,53.2184,84.0519,46.0592,314.0563,-6.172e-05,-1.27e-05,0.0,0 STARLINK-5014,1 53926U 22119AS  23011.88535744 -.00001270  00000-0 -61720-4 0  9993,2 53926  53.2184  84.0519 0001979  46.0592 314.0563 15.08836374 17879,6917.891,95.438,541.126,538.387,0.0
53926.0,STARLINK-5014,PAYLOAD,2023-01-12 14:44:10,15.08826016,0.0001785,53.2174,80.7803,43.6367,316.4766,-5.7372e-05,-1.201e-05,0.0,0 STARLINK-5014,1 53926U 22119AS  23012.61401033 -.00001201  00000-0 -57372-4 0  9990,2 53926  53.2174  80.7803 0001785  43.6367 316.4766 15.08826016 17553,6917.923000000002,95.438,541.023,538.553,0.0
53926.0,STARLINK-5014,PAYLOAD,2023-01-12 21:05:43,15.08824404,0.0001793,53.2171,79.5909,44.2899,315.8237,-8.2494e-05,-1.6e-05,0.0,0 STARLINK-5014,1 53926U 22119AS  23012.87897483 -.00001600  00000-0 -82494-4 0  9992,2 53926  53.2171  79.5909 0001793  44.2899 315.8237 15.08824404 18027,6917.928000000001,95.439,541.033,538.553,0.0
53926.0,STARLINK-5014,PAYLOAD,2023-01-13 11:24:10,15.08843356,0.0001530999999999,53.2174,76.9177,56.6582,303.4557,-8.5556e-05,-1.65e-05,0.0,0 STARLINK-5014,1 53926U 22119AS  23013.47512622 -.00001650  00000-0 -85556-4 0  9995,2 53926  53.2174  76.9177 0001531  56.6582 303.4557 15.08843356 17680,6917.87,95.437,540.794,538.6759999999999,0.0
53926.0,STARLINK-5014,PAYLOAD,2023-01-13 20:56:29,15.08843133,0.0001556,53.2172,75.133,55.0463,305.0675,-6.082e-05,-1.256e-05,0.0,0 STARLINK-5014,1 53926U 22119AS  23013.87256603 -.00001256  00000-0 -60820-4 0  9992,2 53926  53.2172  75.1330 0001556  55.0463 305.0675 15.08843133 18175,6917.871,95.437,540.812,538.659,0.0
53926.0,STARLINK-5014,PAYLOAD,2023-01-14 03:18:02,15.08822451,0.0001448,53.2169,73.9429,58.9644,301.1491,0.00018411,2.642e-05,0.0,0 STARLINK-5014,1 53926U 22119AS  23014.13753338  .00002642  00000-0  18411-3 0  9995,2 53926  53.2169  73.9429 0001448  58.9644 301.1491 15.08822451 17788,6917.934,95.439,540.8009999999999,538.797,0.0
53926.0,STARLINK-5014,PAYLOAD,2023-01-14 09:39:35,15.08834896,0.0001516,53.2172,72.7506,66.2624,293.8528,0.00015077,2.112e-05,0.0,0 STARLINK-5014,1 53926U 22119AS  23014.40248972  .00002112  00000-0  15077-3 0  9995,2 53926  53.2172  72.7506 0001516  66.2624 293.8528 15.08834896 17820,6917.896,95.438,540.81,538.712,0.0
53926.0,STARLINK-5014,PAYLOAD,2023-01-15 03:08:50,15.08823804,0.0001159,53.2169,69.4827,64.3657,295.7455,9.7791e-05,1.268e-05,0.0,0 STARLINK-5014,1 53926U 22119AS  23015.13114186  .00001268  00000-0  97791-4 0  9990,2 53926  53.2169  69.4827 0001159  64.3657 295.7455 15.08823804 17932,6917.93,95.439,540.597,538.993,0.0
53926.0,STARLINK-5014,PAYLOAD,2023-01-15 09:30:23,15.08834305,0.0001795,53.2169,68.2931,70.8557,289.2629,4.8642e-05,4.86e-06,0.0,0 STARLINK-5014,1 53926U 22119AS  23015.39609997  .00000486  00000-0  48642-4 0  9999,2 53926  53.2169  68.2931 0001795  70.8557 289.2629 15.08834305 18404,6917.898,95.438,541.005,538.521,0.0
53926.0,STARLINK-5014,PAYLOAD,2023-01-15 20:38:04,15.08843002,0.000157,53.2189,66.2105,73.2103,286.9061,7.2225e-05,8.62e-06,0.0,0 STARLINK-5014,1 53926U 22119AS  23015.85977410  .00000862  00000-0  72225-4 0  9990,2 53926  53.2189  66.2105 0001570  73.2103 286.9061 15.08843002 18477,6917.871,95.437,540.822,538.65,0.0
53926.0,STARLINK-5014,PAYLOAD,2023-01-16 09:21:08,15.08856455,0.0001185,53.2163,63.8285,81.5584,278.5543,0.00010876,1.444e-05,0.0,0 STARLINK-5014,1 53926U 22119AS  23016.38968104  .00001444  00000-0  10876-3 0  9999,2 53926  53.2163  63.8285 0001185  81.5584 278.5543 15.08856455 18128,6917.83,95.437,540.515,538.875,0.0
53926.0,STARLINK-5014,PAYLOAD,2023-01-16 12:31:53,15.08869123,0.0001363,53.2182,63.2348,77.4692,282.6452,0.00019093,2.754e-05,0.0,0 STARLINK-5014,1 53926U 22119AS  23016.52214929  .00002754  00000-0  19093-3 0  9999,2 53926  53.2182  63.2348 0001363  77.4692 282.6452 15.08869123 18575,6917.791,95.436,540.599,538.7130000000001,0.0
53926.0,STARLINK-5014,PAYLOAD,2023-01-16 20:28:51,15.08830211,0.0001065,53.2189,61.7501,87.3021,272.8093,-4.6121e-05,-1.021e-05,0.0,0 STARLINK-5014,1 53926U 22119AS  23016.85337922 -.00001021  00000-0 -46121-4 0  9995,2 53926  53.2189  61.7501 0001065  87.3021 272.8093 15.08830211 18625,6917.91,95.438,540.512,539.039,0.0
53926.0,STARLINK-5014,PAYLOAD,2023-01-17 02:50:26,15.08802721,0.0001159,53.2182,60.5607,91.8632,268.2493,-0.00011713,-2.149e-05,0.0,0 STARLINK-5014,1 53926U 22119AS  23017.11836318 -.00002149  00000-0 -11713-3 0  9998,2 53926  53.2182  60.5607 0001159  91.8632 268.2493 15.08802721 18239,6917.994000000001,95.44,540.661,539.058,0.0
53926.0,STARLINK-5014,PAYLOAD,2023-01-17 09:11:58,15.08811501,0.0001565999999999,53.2168,59.3701,98.9431,261.1738,-5.2127e-05,-1.117e-05,0.0,0 STARLINK-5014,1 53926U 22119AS  23017.38331948 -.00001117  00000-0 -52127-4 0  9995,2 53926  53.2168  59.3701 0001566  98.9431 261.1738 15.08811501 18275,6917.968000000001,95.439,540.9159999999999,538.749,0.0
53926.0,STARLINK-5014,PAYLOAD,2023-01-17 12:22:45,15.08818478,0.0001673,53.2175,58.7743,103.8666,256.2513,-0.00013638,-2.457e-05,0.0,0 STARLINK-5014,1 53926U 22119AS  23017.51579966 -.00002457  00000-0 -13638-3 0  9995,2 53926  53.2175  58.7743 0001673 103.8666 256.2513 15.08818478 18723,6917.946,95.439,540.969,538.654,0.0
53926.0,STARLINK-5014,PAYLOAD,2023-01-18 02:41:12,15.08835632,8.25e-05,53.2196,56.1007,71.8969,288.2113,-6.966600000000001e-05,-1.396e-05,0.0,0 STARLINK-5014,1 53926U 22119AS  23018.11194840 -.00001396  00000-0 -69666-4 0  9990,2 53926  53.2196  56.1007 0000825  71.8969 288.2113 15.08835632 18383,6917.894,95.438,540.3290000000001,539.188,0.0
53926.0,STARLINK-5014,PAYLOAD,2023-01-18 09:02:42,15.08866492,0.0001349,53.2187,54.9085,112.8035,247.31,1.7603e-05,-8e-08,0.0,0 STARLINK-5014,1 53926U 22119AS  23018.37688585 -.00000008  00000-0  17603-4 0  9994,2 53926  53.2187  54.9085 0001349 112.8035 247.3100 15.08866492 18422,6917.799,95.436,540.5980000000001,538.731,0.0
53926.0,STARLINK-5014,PAYLOAD,2023-01-19 02:31:58,15.08834106,0.0001391,53.2191,51.64,114.9554,245.1583,0.00033658,5.072e-05,0.0,0 STARLINK-5014,1 53926U 22119AS  23019.10553433  .00005072  00000-0  33658-3 0  9991,2 53926  53.2191  51.6400 0001391 114.9554 245.1583 15.08834106 18538,6917.898,95.438,540.726,538.8009999999999,0.0
53926.0,STARLINK-5014,PAYLOAD,2023-01-19 10:28:53,15.08844908,0.0001408,53.2209,50.1549,113.3789,246.7351,0.00030798,4.618e-05,0.0,0 STARLINK-5014,1 53926U 22119AS  23019.43672895  .00004618  00000-0  30798-3 0  9998,2 53926  53.2209  50.1549 0001408 113.3789 246.7351 15.08844908 18584,6917.865,95.437,540.7040000000001,538.756,0.0
53926.0,STARLINK-5014,PAYLOAD,2023-01-19 18:25:50,15.08834927,0.000102,53.2192,48.6639,113.05,247.06,3.4356e-05,2.59e-06,0.0,0 STARLINK-5014,1 53926U 22119AS  23019.76794232  .00000259  00000-0  34356-4 0  9996,2 53926  53.2192  48.6639 0001020 113.0500 247.0600 15.08834927 18632,6917.896,95.438,540.467,539.055,0.0
53926.0,STARLINK-5014,PAYLOAD,2023-01-20 08:44:18,15.08839251,0.0001608,53.2204,45.993,120.5563,239.5588,-0.00011746,-2.157e-05,0.0,0 STARLINK-5014,1 53926U 22119AS  23020.36410730 -.00002157  00000-0 -11746-3 0  9990,2 53926  53.2204  45.9930 0001608 120.5563 239.5588 15.08839251 19158,6917.883000000001,95.438,540.86,538.635,0.0
53926.0,STARLINK-5014,PAYLOAD,2023-01-21 02:13:33,15.08840998,0.0001426999999999,53.2198,42.7204,121.0963,239.0169,-7.9359e-05,-1.551e-05,0.0,0 STARLINK-5014,1 53926U 22119AS  23021.09274469 -.00001551  00000-0 -79359-4 0  9990,2 53926  53.2198  42.7204 0001427 121.0963 239.0169 15.08840998 18832,6917.877,95.437,540.73,538.755,0.0
